[{"OBJECT_NAME":"SHIYAN-24C 01","OBJECT_ID":"2023-206A","EPOCH":"2026-03-09T21:26:37.340736","MEAN_MOTION":14.97903598,"ECCENTRICITY":0.0003675,"INCLINATION":97.3976,"RA_OF_ASC_NODE":41.7846,"ARG_OF_PERICENTER":132.3262,"MEAN_ANOMALY":227.8273,"EPHEMERIS_TYPE":0,"CLASSIFICATION_TYPE":"U","NORAD_CAT_ID":58650,"ELEMENT_SET_NO":999,"REV_AT_EPOCH":12044,"BSTAR":0.00018089,"MEAN_MOTION_DOT":2.076e-5,"MEAN_MOTION_DDOT":0},{"OBJECT_NAME":"COSMOS 252 DEB","OBJECT_ID":"1968-097EF","EPOCH":"2026-03-08T16:29:22.969824","MEAN_MOTION":13.07337896,"ECCENTRICITY":0.08655996,"INCLINATION":62.3786,"RA_OF_ASC_NODE":170.7895,"ARG_OF_PERICENTER":265.5008,"MEAN_ANOMALY":84.6738,"EPHEMERIS_TYPE":0,"CLASSIFICATION_TYPE":"U","NORAD_CAT_ID":15519,"ELEMENT_SET_NO":999,"REV_AT_EPOCH":80643,"BSTAR":0.00039441668,"MEAN_MOTION_DOT":7.8e-6,"MEAN_MOTION_DDOT":0}]
